[
    {
        "Altitude(m)": 610399.5602620424,
        "Argument of Periapsis(deg)": 0.0,
        "Eccentricity": 0.0,
        "Inclination(deg)": 60.0,
        "Latitude(deg)": 52.11142163568617,
        "Longitude(deg)": 152.58440387204521,
        "Mean Anomaly(deg)": 65.45450000000001,
        "RAAN(deg)": 205.0,
        "Satellite Name": "Test1 906",
        "Satellite Number": 906,
        "Semi-Major Axis(m)": 6980739.136638005,
        "Time(s)": 0
    },
    {
        "Altitude(m)": 610481.7108653367,
        "Argument of Periapsis(deg)": 0.00010418945913296404,
        "Eccentricity": 0.0,
        "Inclination(deg)": 60.0,
        "Latitude(deg)": 52.47102282862247,
        "Longitude(deg)": 153.36654289620637,
        "Mean Anomaly(deg)": 66.07460614546181,
        "RAAN(deg)": 204.99957995086024,
        "Satellite Name": "Test1 906",
        "Satellite Number": 906,
        "Semi-Major Axis(m)": 6980739.136638005,
        "Time(s)": 10
    },
    {
        "Altitude(m)": 610562.4002707957,
        "Argument of Periapsis(deg)": 0.0002083789182659281,
        "Eccentricity": 0.0,
        "Inclination(deg)": 60.0,
        "Latitude(deg)": 52.82477658407223,
        "Longitude(deg)": 154.16209497477507,
        "Mean Anomaly(deg)": 66.69471229092363,
        "RAAN(deg)": 204.99915990172053,
        "Satellite Name": "Test1 906",
        "Satellite Number": 906,
        "Semi-Major Axis(m)": 6980739.136638005,
        "Time(s)": 20
    },
    {
        "Altitude(m)": 610641.5810127138,
        "Argument of Periapsis(deg)": 0.00031256837739889213,
        "Eccentricity": 0.0,
        "Inclination(deg)": 60.0,
        "Latitude(deg)": 53.17251337416535,
        "Longitude(deg)": 154.97122461660936,
        "Mean Anomaly(deg)": 67.3148184363855,
        "RAAN(deg)": 204.99873985258077,
        "Satellite Name": "Test1 906",
        "Satellite Number": 906,
        "Semi-Major Axis(m)": 6980739.136638005,
        "Time(s)": 30
    },
    {
        "Altitude(m)": 610719.2065818476,
        "Argument of Periapsis(deg)": 0.0004167578365318562,
        "Eccentricity": 0.0,
        "Inclination(deg)": 60.0,
        "Latitude(deg)": 53.51406019513207,
        "Longitude(deg)": 155.79408471777404,
        "Mean Anomaly(deg)": 67.93492458184731,
        "RAAN(deg)": 204.99831980344103,
        "Satellite Name": "Test1 906",
        "Satellite Number": 906,
        "Semi-Major Axis(m)": 6980739.136638005,
        "Time(s)": 40
    },
    {
        "Altitude(m)": 610795.231447733,
        "Argument of Periapsis(deg)": 0.0005209472956648203,
        "Eccentricity": 0.0,
        "Inclination(deg)": 60.0,
        "Latitude(deg)": 53.84924068927425,
        "Longitude(deg)": 156.6308141473336,
        "Mean Anomaly(deg)": 68.55503072730913,
        "RAAN(deg)": 204.99789975430127,
        "Satellite Name": "Test1 906",
        "Satellite Number": 906,
        "Semi-Major Axis(m)": 6980739.136638005,
        "Time(s)": 50
    },
    {
        "Altitude(m)": 610869.6110805345,
        "Argument of Periapsis(deg)": 0.0006251367547977843,
        "Eccentricity": 0.0,
        "Inclination(deg)": 60.0,
        "Latitude(deg)": 54.17787529125931,
        "Longitude(deg)": 157.4815367803774,
        "Mean Anomaly(deg)": 69.17513687277095,
        "RAAN(deg)": 204.99747970516157,
        "Satellite Name": "Test1 906",
        "Satellite Number": 906,
        "Semi-Major Axis(m)": 6980739.136638005,
        "Time(s)": 60
    },
    {
        "Altitude(m)": 610942.3019723523,
        "Argument of Periapsis(deg)": 0.0007293262139307483,
        "Eccentricity": 0.0,
        "Inclination(deg)": 60.0,
        "Latitude(deg)": 54.499781400403336,
        "Longitude(deg)": 158.34636046970525,
        "Mean Anomaly(deg)": 69.79524301823281,
        "RAAN(deg)": 204.99705965602178,
        "Satellite Name": "Test1 906",
        "Satellite Number": 906,
        "Semi-Major Axis(m)": 6980739.136638005,
        "Time(s)": 70
    },
    {
        "Altitude(m)": 611013.261658059,
        "Argument of Periapsis(deg)": 0.0008335156730637124,
        "Eccentricity": 0.0,
        "Inclination(deg)": 60.0,
        "Latitude(deg)": 54.8147735805708,
        "Longitude(deg)": 159.2253744489169,
        "Mean Anomaly(deg)": 70.41534916369463,
        "RAAN(deg)": 204.99663960688207,
        "Satellite Name": "Test1 906",
        "Satellite Number": 906,
        "Semi-Major Axis(m)": 6980739.136638005,
        "Time(s)": 80
    },
    {
        "Altitude(m)": 611082.4487355881,
        "Argument of Periapsis(deg)": 0.0009377051321966765,
        "Eccentricity": 0.0,
        "Inclination(deg)": 60.0,
        "Latitude(deg)": 55.12266378924456,
        "Longitude(deg)": 160.11864819970037,
        "Mean Anomaly(deg)": 71.03545530915649,
        "RAAN(deg)": 204.9962195577423,
        "Satellite Name": "Test1 906",
        "Satellite Number": 906,
        "Semi-Major Axis(m)": 6980739.136638005,
        "Time(s)": 90
    },
    {
        "Altitude(m)": 611149.8228857282,
        "Argument of Periapsis(deg)": 0.0010418945913296407,
        "Eccentricity": 0.0,
        "Inclination(deg)": 60.0,
        "Latitude(deg)": 55.423261637228684,
        "Longitude(deg)": 161.0262302790338,
        "Mean Anomaly(deg)": 71.65556145461831,
        "RAAN(deg)": 204.99579950860257,
        "Satellite Name": "Test1 906",
        "Satellite Number": 906,
        "Semi-Major Axis(m)": 6980739.136638005,
        "Time(s)": 100
    },
    {
        "Altitude(m)": 611215.344891359,
        "Argument of Periapsis(deg)": 0.0011460840504626045,
        "Eccentricity": 0.0,
        "Inclination(deg)": 60.0,
        "Latitude(deg)": 55.716374680315624,
        "Longitude(deg)": 161.94814560365145,
        "Mean Anomaly(deg)": 72.27566760008011,
        "RAAN(deg)": 204.9953794594628,
        "Satellite Name": "Test1 906",
        "Satellite Number": 906,
        "Semi-Major Axis(m)": 6980739.136638005,
        "Time(s)": 110
    },
    {
        "Altitude(m)": 611278.9766561519,
        "Argument of Periapsis(deg)": 0.0012502735095955685,
        "Eccentricity": 0.0,
        "Inclination(deg)": 60.0,
        "Latitude(deg)": 56.00180874407071,
        "Longitude(deg)": 162.88439422947292,
        "Mean Anomaly(deg)": 72.89577374554199,
        "RAAN(deg)": 204.9949594103231,
        "Satellite Name": "Test1 906",
        "Satellite Number": 906,
        "Semi-Major Axis(m)": 6980739.136638005,
        "Time(s)": 120
    },
    {
        "Altitude(m)": 611340.6812227219,
        "Argument of Periapsis(deg)": 0.0013544629687285324,
        "Eccentricity": 0.0,
        "Inclination(deg)": 60.0,
        "Latitude(deg)": 56.27936828268396,
        "Longitude(deg)": 163.83495012683997,
        "Mean Anomaly(deg)": 73.51587989100379,
        "RAAN(deg)": 204.99453936118334,
        "Satellite Name": "Test1 906",
        "Satellite Number": 906,
        "Semi-Major Axis(m)": 6980739.136638005,
        "Time(s)": 130
    },
    {
        "Altitude(m)": 611400.422790244,
        "Argument of Periapsis(deg)": 0.0014586524278614966,
        "Eccentricity": 0.0,
        "Inclination(deg)": 60.0,
        "Latitude(deg)": 56.54885677258607,
        "Longitude(deg)": 164.79975845421347,
        "Mean Anomaly(deg)": 74.13598603646562,
        "RAAN(deg)": 204.9941193120436,
        "Satellite Name": "Test1 906",
        "Satellite Number": 906,
        "Semi-Major Axis(m)": 6980739.136638005,
        "Time(s)": 140
    },
    {
        "Altitude(m)": 611458.1667314561,
        "Argument of Periapsis(deg)": 0.0015628418869944607,
        "Eccentricity": 0.0,
        "Inclination(deg)": 60.0,
        "Latitude(deg)": 56.810077141218244,
        "Longitude(deg)": 165.7787343733937,
        "Mean Anomaly(deg)": 74.75609218192743,
        "RAAN(deg)": 204.99369926290385,
        "Satellite Name": "Test1 906",
        "Satellite Number": 906,
        "Semi-Major Axis(m)": 6980739.136638005,
        "Time(s)": 150
    },
    {
        "Altitude(m)": 611513.8796091386,
        "Argument of Periapsis(deg)": 0.0016670313461274247,
        "Eccentricity": 0.0,
        "Inclination(deg)": 60.0,
        "Latitude(deg)": 57.062832231009715,
        "Longitude(deg)": 166.7717619124472,
        "Mean Anomaly(deg)": 75.37619832738925,
        "RAAN(deg)": 204.99327921376414,
        "Satellite Name": "Test1 906",
        "Satellite Number": 906,
        "Semi-Major Axis(m)": 6980739.136638005,
        "Time(s)": 160
    },
    {
        "Altitude(m)": 611567.5291920075,
        "Argument of Periapsis(deg)": 0.0017712208052603888,
        "Eccentricity": 0.0,
        "Inclination(deg)": 60.0,
        "Latitude(deg)": 57.30692529822611,
        "Longitude(deg)": 167.7786913841587,
        "Mean Anomaly(deg)": 75.99630447285111,
        "RAAN(deg)": 204.99285916462438,
        "Satellite Name": "Test1 906",
        "Satellite Number": 906,
        "Semi-Major Axis(m)": 6980739.136638005,
        "Time(s)": 170
    },
    {
        "Altitude(m)": 611619.084470006,
        "Argument of Periapsis(deg)": 0.001875410264393353,
        "Eccentricity": 0.0,
        "Inclination(deg)": 60.0,
        "Latitude(deg)": 57.54216054591059,
        "Longitude(deg)": 168.79933840793694,
        "Mean Anomaly(deg)": 76.61641061831293,
        "RAAN(deg)": 204.99243911548464,
        "Satellite Name": "Test1 906",
        "Satellite Number": 906,
        "Semi-Major Axis(m)": 6980739.136638005,
        "Time(s)": 180
    },
    {
        "Altitude(m)": 611668.5156690079,
        "Argument of Periapsis(deg)": 0.0019795997235263173,
        "Eccentricity": 0.0,
        "Inclination(deg)": 60.0,
        "Latitude(deg)": 57.76834368967035,
        "Longitude(deg)": 169.83348304574662,
        "Mean Anomaly(deg)": 77.23651676377479,
        "RAAN(deg)": 204.99201906634488,
        "Satellite Name": "Test1 906",
        "Satellite Number": 906,
        "Semi-Major Axis(m)": 6980739.136638005,
        "Time(s)": 190
    }
]